{"type": "FeatureCollection", "features": [ {"type": "Feature", "properties": {"norad_id": 34685, "name": "COSMOS 2251 DEB", "group": "cosmos-2251-debris", "lat": 51.73223058543194, "lon": 141.57390089164397, "alt_km": 705.5189860934406, "timestamp": "2025-12-27T17:24:57.802699+00:00", "meta": {"OBJECT_NAME": "COSMOS 2251 DEB", "OBJECT_ID": "1993-036YF", "EPOCH": "2025-12-26T14:54:43.184160", "MEAN_MOTION": 14.57632396, "ECCENTRICITY": 0.0014147, "INCLINATION": 74.0295, "RA_OF_ASC_NODE": 122.3864, "ARG_OF_PERICENTER": 227.7376, "MEAN_ANOMALY": 154.4807, "EPHEMERIS_TYPE": 0, "CLASSIFICATION_TYPE": "U", "NORAD_CAT_ID": 34685, "ELEMENT_SET_NO": 999, "REV_AT_EPOCH": 88734, "BSTAR": 0.0011969, "MEAN_MOTION_DOT": 5.438e-05, "MEAN_MOTION_DDOT": 0}, "tle": {"line1": "1 34685U 93036YF  25360.62133315  .00005438  00000+0  11969-2 0  9994", "line2": "2 34685  74.0295 122.3864 0014147 227.7376 154.4807 14.57632396887347"}}, "geometry": {"type": "Point", "coordinates": [141.57390089164397, 51.73223058543194]}}, {"type": "Feature", "properties": {"norad_id": 34689, "name": "COSMOS 2251 DEB", "group": "cosmos-2251-debris", "lat": -71.71694742189474, "lon": 137.62458944187307, "alt_km": 726.865188070049, "timestamp": "2025-12-27T17:24:57.802709+00:00", "meta": {"OBJECT_NAME": "COSMOS 2251 DEB", "OBJECT_ID": "1993-036YK", "EPOCH": "2025-12-27T12:48:07.831008", "MEAN_MOTION": 14.04623679, "ECCENTRICITY": 0.022632, "INCLINATION": 74.0887, "RA_OF_ASC_NODE": 197.6563, "ARG_OF_PERICENTER": 263.186, "MEAN_ANOMALY": 123.49, "EPHEMERIS_TYPE": 0, "CLASSIFICATION_TYPE": "U", "NORAD_CAT_ID": 34689, "ELEMENT_SET_NO": 999, "REV_AT_EPOCH": 84549, "BSTAR": 0.0033015, "MEAN_MOTION_DOT": 6.616e-05, "MEAN_MOTION_DDOT": 0}, "tle": {"line1": "1 34689U 93036YK  25361.53342397  .00006616  00000+0  33015-2 0  9996", "line2": "2 34689  74.0887 197.6563 0226320 263.1860 123.4900 14.04623679845495"}}, "geometry": {"type": "Point", "coordinates": [137.62458944187307, -71.71694742189474]}}, {"type": "Feature", "properties": {"norad_id": 34721, "name": "COSMOS 2251 DEB", "group": "cosmos-2251-debris", "lat": -69.53200419805985, "lon": 170.83890941055748, "alt_km": 759.4495474441383, "timestamp": "2025-12-27T17:24:57.802720+00:00", "meta": {"OBJECT_NAME": "COSMOS 2251 DEB", "OBJECT_ID": "1993-036YP", "EPOCH": "2025-12-27T02:29:18.758112", "MEAN_MOTION": 13.96906866, "ECCENTRICITY": 0.02224874, "INCLINATION": 73.9227, "RA_OF_ASC_NODE": 301.3262, "ARG_OF_PERICENTER": 237.6042, "MEAN_ANOMALY": 132.0018, "EPHEMERIS_TYPE": 0, "CLASSIFICATION_TYPE": "U", "NORAD_CAT_ID": 34721, "ELEMENT_SET_NO": 999, "REV_AT_EPOCH": 85350, "BSTAR": 0.001123856, "MEAN_MOTION_DOT": 1.903e-05, "MEAN_MOTION_DDOT": 0}, "tle": {"line1": "1 34721U 93036YP  25361.10368933  .00001903  00000+0  11239-2 0  9998", "line2": "2 34721  73.9227 301.3262 0222487 237.6042 132.0018 13.96906866853505"}}, "geometry": {"type": "Point", "coordinates": [170.83890941055748, -69.53200419805985]}}, {"type": "Feature", "properties": {"norad_id": 34722, "name": "COSMOS 2251 DEB", "group": "cosmos-2251-debris", "lat": -32.559110543737326, "lon": 139.98406092707822, "alt_km": 743.9160365734751, "timestamp": "2025-12-27T17:24:57.802731+00:00", "meta": {"OBJECT_NAME": "COSMOS 2251 DEB", "OBJECT_ID": "1993-036YQ", "EPOCH": "2025-12-27T02:52:25.320000", "MEAN_MOTION": 14.11976126, "ECCENTRICITY": 0.01663297, "INCLINATION": 73.8738, "RA_OF_ASC_NODE": 310.4187, "ARG_OF_PERICENTER": 233.4384, "MEAN_ANOMALY": 142.3004, "EPHEMERIS_TYPE": 0, "CLASSIFICATION_TYPE": "U", "NORAD_CAT_ID": 34722, "ELEMENT_SET_NO": 999, "REV_AT_EPOCH": 86448, "BSTAR": 0.00073219183, "MEAN_MOTION_DOT": 1.5e-05, "MEAN_MOTION_DDOT": 0}, "tle": {"line1": "1 34722U 93036YQ  25361.11973750  .00001500  00000+0  73219-3 0  9999", "line2": "2 34722  73.8738 310.4187 0166329 233.4384 142.3004 14.11976126864486"}}, "geometry": {"type": "Point", "coordinates": [139.98406092707822, -32.559110543737326]}}, {"type": "Feature", "properties": {"norad_id": 34726, "name": "COSMOS 2251 DEB", "group": "cosmos-2251-debris", "lat": -67.88561279280952, "lon": -87.07434202145552, "alt_km": 731.0160056823552, "timestamp": "2025-12-27T17:24:57.802741+00:00", "meta": {"OBJECT_NAME": "COSMOS 2251 DEB", "OBJECT_ID": "1993-036YU", "EPOCH": "2025-12-27T07:53:19.666176", "MEAN_MOTION": 14.59542132, "ECCENTRICITY": 0.0041675, "INCLINATION": 74.0294, "RA_OF_ASC_NODE": 318.4927, "ARG_OF_PERICENTER": 104.5537, "MEAN_ANOMALY": 256.0257, "EPHEMERIS_TYPE": 0, "CLASSIFICATION_TYPE": "U", "NORAD_CAT_ID": 34726, "ELEMENT_SET_NO": 999, "REV_AT_EPOCH": 88715, "BSTAR": 0.00055586, "MEAN_MOTION_DOT": 2.644e-05, "MEAN_MOTION_DDOT": 0}, "tle": {"line1": "1 34726U 93036YU  25361.32869984  .00002644  00000+0  55586-3 0  9996", "line2": "2 34726  74.0294 318.4927 0041675 104.5537 256.0257 14.59542132887154"}}, "geometry": {"type": "Point", "coordinates": [-87.07434202145552, -67.88561279280952]}}, {"type": "Feature", "properties": {"norad_id": 34728, "name": "COSMOS 2251 DEB", "group": "cosmos-2251-debris", "lat": 54.817213759604776, "lon": -113.36935217628822, "alt_km": 630.5416068123914, "timestamp": "2025-12-27T17:24:57.802752+00:00", "meta": {"OBJECT_NAME": "COSMOS 2251 DEB", "OBJECT_ID": "1993-036YW", "EPOCH": "2025-12-26T18:18:10.094976", "MEAN_MOTION": 14.70962251, "ECCENTRICITY": 0.00417457, "INCLINATION": 74.0156, "RA_OF_ASC_NODE": 224.5108, "ARG_OF_PERICENTER": 18.4003, "MEAN_ANOMALY": 341.8666, "EPHEMERIS_TYPE": 0, "CLASSIFICATION_TYPE": "U", "NORAD_CAT_ID": 34728, "ELEMENT_SET_NO": 999, "REV_AT_EPOCH": 89006, "BSTAR": 0.00065234941, "MEAN_MOTION_DOT": 4.022e-05, "MEAN_MOTION_DDOT": 0}, "tle": {"line1": "1 34728U 93036YW  25360.76261684  .00004022  00000+0  65235-3 0  9992", "line2": "2 34728  74.0156 224.5108 0041745  18.4003 341.8666 14.70962251890062"}}, "geometry": {"type": "Point", "coordinates": [-113.36935217628822, 54.817213759604776]}}, {"type": "Feature", "properties": {"norad_id": 34729, "name": "COSMOS 2251 DEB", "group": "cosmos-2251-debris", "lat": 3.19149800269439, "lon": -30.346740862421797, "alt_km": 619.3858891087239, "timestamp": "2025-12-27T17:24:57.802762+00:00", "meta": {"OBJECT_NAME": "COSMOS 2251 DEB", "OBJECT_ID": "1993-036YX", "EPOCH": "2025-12-27T04:31:24.449088", "MEAN_MOTION": 14.83226319, "ECCENTRICITY": 0.00121376, "INCLINATION": 74.0183, "RA_OF_ASC_NODE": 329.8018, "ARG_OF_PERICENTER": 81.4706, "MEAN_ANOMALY": 294.8875, "EPHEMERIS_TYPE": 0, "CLASSIFICATION_TYPE": "U", "NORAD_CAT_ID": 34729, "ELEMENT_SET_NO": 999, "REV_AT_EPOCH": 88672, "BSTAR": 0.0024708924, "MEAN_MOTION_DOT": 0.00020246, "MEAN_MOTION_DDOT": 0}, "tle": {"line1": "1 34729U 93036YX  25361.18847742  .00020246  00000+0  24709-2 0  9991", "line2": "2 34729  74.0183 329.8018 0012137  81.4706 294.8875 14.83226319886724"}}, "geometry": {"type": "Point", "coordinates": [-30.346740862421797, 3.19149800269439]}}, {"type": "Feature", "properties": {"norad_id": 34732, "name": "COSMOS 2251 DEB", "group": "cosmos-2251-debris", "lat": 68.214736819329, "lon": -160.5224455411947, "alt_km": 736.2703526213145, "timestamp": "2025-12-27T17:24:57.802772+00:00", "meta": {"OBJECT_NAME": "COSMOS 2251 DEB", "OBJECT_ID": "1993-036ZA", "EPOCH": "2025-12-27T03:47:09.341664", "MEAN_MOTION": 14.47316907, "ECCENTRICITY": 0.00400123, "INCLINATION": 74.0455, "RA_OF_ASC_NODE": 66.2445, "ARG_OF_PERICENTER": 214.4956, "MEAN_ANOMALY": 173.0696, "EPHEMERIS_TYPE": 0, "CLASSIFICATION_TYPE": "U", "NORAD_CAT_ID": 34732, "ELEMENT_SET_NO": 999, "REV_AT_EPOCH": 88352, "BSTAR": 0.00016138435, "MEAN_MOTION_DOT": 5.69e-06, "MEAN_MOTION_DDOT": 0}, "tle": {"line1": "1 34732U 93036ZA  25361.15774701  .00000569  00000+0  16138-3 0  9990", "line2": "2 34732  74.0455  66.2445 0040012 214.4956 173.0696 14.47316907883521"}}, "geometry": {"type": "Point", "coordinates": [-160.5224455411947, 68.214736819329]}}, {"type": "Feature", "properties": {"norad_id": 34736, "name": "COSMOS 2251 DEB", "group": "cosmos-2251-debris", "lat": -62.512154575858325, "lon": -143.46804103552577, "alt_km": 384.04946510113314, "timestamp": "2025-12-27T17:24:57.802783+00:00", "meta": {"OBJECT_NAME": "COSMOS 2251 DEB", "OBJECT_ID": "1993-036ZE", "EPOCH": "2025-12-27T07:08:39.911424", "MEAN_MOTION": 15.62788601, "ECCENTRICITY": 0.0008307, "INCLINATION": 73.9965, "RA_OF_ASC_NODE": 4.0115, "ARG_OF_PERICENTER": 336.0819, "MEAN_ANOMALY": 24.0014, "EPHEMERIS_TYPE": 0, "CLASSIFICATION_TYPE": "U", "NORAD_CAT_ID": 34736, "ELEMENT_SET_NO": 999, "REV_AT_EPOCH": 88674, "BSTAR": 0.0090031, "MEAN_MOTION_DOT": 0.0089031, "MEAN_MOTION_DDOT": 0}, "tle": {"line1": "1 34736U 93036ZE  25361.29768416  .00890310  00000+0  90031-2 0  9999", "line2": "2 34736  73.9965   4.0115 0008307 336.0819  24.0014 15.62788601886741"}}, "geometry": {"type": "Point", "coordinates": [-143.46804103552577, -62.512154575858325]}}, {"type": "Feature", "properties": {"norad_id": 34738, "name": "COSMOS 2251 DEB", "group": "cosmos-2251-debris", "lat": 73.06341147960568, "lon": -174.47881699333965, "alt_km": 763.9805977241422, "timestamp": "2025-12-27T17:24:57.802793+00:00", "meta": {"OBJECT_NAME": "COSMOS 2251 DEB", "OBJECT_ID": "1993-036ZG", "EPOCH": "2025-12-27T02:20:32.699616", "MEAN_MOTION": 14.46336983, "ECCENTRICITY": 0.00475977, "INCLINATION": 74.0159, "RA_OF_ASC_NODE": 116.4311, "ARG_OF_PERICENTER": 260.0922, "MEAN_ANOMALY": 155.4152, "EPHEMERIS_TYPE": 0, "CLASSIFICATION_TYPE": "U", "NORAD_CAT_ID": 34738, "ELEMENT_SET_NO": 999, "REV_AT_EPOCH": 88066, "BSTAR": 0.00040900759, "MEAN_MOTION_DOT": 1.46e-05, "MEAN_MOTION_DDOT": 0}, "tle": {"line1": "1 34738U 93036ZG  25361.09760069  .00001460  00000+0  40901-3 0  9997", "line2": "2 34738  74.0159 116.4311 0047597 260.0922 155.4152 14.46336983880661"}}, "geometry": {"type": "Point", "coordinates": [-174.47881699333965, 73.06341147960568]}}]}